STARLINK-2232           
1 48578U 21041AB  26068.80037140  .00015414  00000+0  53127-3 0  9990
2 48578  53.1585 126.1890 0001363  96.9551 263.1605 15.30210888265299
TEVEL2-6                
1 63215U 25052F   26068.64958975  .00021046  00000+0  70909-3 0  9996
2 63215  97.4016 325.0381 0004769  95.6604 264.5181 15.30760889 54861
